EUTELSAT QUANTUM        
1 49056U 21069B   25239.53797166  .00000000  00000+0  00000+0 0  9995
2 49056   0.0142 104.5073 0001988  68.0922  44.7744  1.00272886 14982
EUTELSAT KONNECT VHTS   
1 53765U 22110A   25239.38628259  .00000015  00000+0  00000+0 0  9990
2 53765   0.0575 103.8568 0002730  38.3460 335.4337  1.00270525  3881
EUTELSAT HOTBIRD 13F    
1 54048U 22134A   25238.31751867  .00000082  00000+0  00000+0 0  9999
2 54048   0.0546 293.9253 0002014  69.1593  99.0306  1.00272083 10428
EUTELSAT HOTBIRD 13G    
1 54225U 22146A   25238.31751867  .00000082  00000+0  00000+0 0  9999
2 54225   0.0515 235.0421 0001989 302.5274 284.5317  1.00272311  4504
EUTELSAT 10B            
1 54259U 22157A   25239.38933745  .00000067  00000+0  00000+0 0  9996
2 54259   0.0569 101.9105 0001312   5.2725  18.8235  1.00272627 10074
EUTELSAT 36D            
1 59346U 24059A   25239.37822483  .00000154  00000+0  00000+0 0  9993
2 59346   0.0132 121.9183 0000231  14.9193  11.0306  1.00272063  5202
